NORAD_CAT_ID,OBJECT_NAME,OBJECT_TYPE,EPOCH,MEAN_MOTION,ECCENTRICITY,INCLINATION,RA_OF_ASC_NODE,ARG_OF_PERICENTER,MEAN_ANOMALY,BSTAR,MEAN_MOTION_DOT,MEAN_MOTION_DDOT,TLE_LINE0,TLE_LINE1,TLE_LINE2,SEMIMAJOR_AXIS,PERIOD,APOGEE,PERIGEE,DECAYED
53779.0,STARLINK-4706,PAYLOAD,2024-04-23 03:58:09,15.08852933,0.0001139,53.2154,111.6724,77.1727,282.9392,0.00070331,0.00010927,0.0,0 STARLINK-4706,1 53779U 22111G   24114.16539075  .00010927  00000-0  70331-3 0  9992,2 53779  53.2154 111.6724 0001139  77.1727 282.9392 15.08852933 89398,6917.841,95.437,540.494,538.918,0.0
53779.0,STARLINK-4706,PAYLOAD,2024-04-23 10:19:41,15.08860534,0.0001139,53.2154,110.4835,83.7107,276.4015,0.00070827,0.00011008,0.0,0 STARLINK-4706,1 53779U 22111G   24114.43034711  .00011008  00000-0  70827-3 0  9990,2 53779  53.2154 110.4835 0001139  83.7107 276.4015 15.08860534 90245,6917.818,95.436,540.471,538.895,0.0
53779.0,STARLINK-4706,PAYLOAD,2024-04-24 05:24:19,15.08851252,0.0001261,53.216,106.9131,95.2391,264.8745,0.00018775,2.702e-05,0.0,0 STARLINK-4706,1 53779U 22111G   24115.22522349  .00002702  00000-0  18775-3 0  9992,2 53779  53.2160 106.9131 0001261  95.2391 264.8745 15.08851252 89550,6917.846,95.437,540.583,538.839,0.0
53779.0,STARLINK-4706,PAYLOAD,2024-04-24 06:59:42,15.08849406,0.0001267,53.216,106.6161,97.8479,262.2657,0.00013381,1.843e-05,0.0,0 STARLINK-4706,1 53779U 22111G   24115.29146349  .00001843  00000-0  13381-3 0  9994,2 53779  53.2160 106.6161 0001267  97.8479 262.2657 15.08849406 90375,6917.852,95.437,540.593,538.84,0.0
53779.0,STARLINK-4706,PAYLOAD,2024-04-24 22:53:33,15.088465,0.0001304,53.2161,103.6434,95.5482,264.5659,4.3203e-05,4e-06,0.0,0 STARLINK-4706,1 53779U 22111G   24115.95386281  .00000400  00000-0  43203-4 0  9993,2 53779  53.2161 103.6434 0001304  95.5482 264.5659 15.08846500 90477,6917.861,95.437,540.628,538.823,0.0
53779.0,STARLINK-4706,PAYLOAD,2024-04-25 05:15:06,15.08846796,0.0001322,53.2166,102.454,93.3604,266.7539,3.4245e-05,2.57e-06,0.0,0 STARLINK-4706,1 53779U 22111G   24116.21882264  .00000257  00000-0  34245-4 0  9991,2 53779  53.2166 102.4540 0001322  93.3604 266.7539 15.08846796 89701,6917.86,95.437,540.639,538.81,0.0
53779.0,STARLINK-4706,PAYLOAD,2024-04-25 08:25:52,15.08847436,0.0001304,53.2166,101.8591,91.9901,268.1241,4.1603e-05,3.74e-06,0.0,0 STARLINK-4706,1 53779U 22111G   24116.35130169  .00000374  00000-0  41603-4 0  9992,2 53779  53.2166 101.8591 0001304  91.9901 268.1241 15.08847436 90535,6917.858,95.437,540.625,538.821,0.0
53779.0,STARLINK-4706,PAYLOAD,2024-04-25 22:44:22,15.08826326,0.0001157,53.2178,99.1841,93.2182,266.8943,-9.4997e-05,-1.799e-05,0.0,0 STARLINK-4706,1 53779U 22111G   24116.94748357 -.00001799  00000-0 -94997-4 0  9999,2 53779  53.2178  99.1841 0001157  93.2182 266.8943 15.08826326 90626,6917.922,95.438,540.588,538.987,0.0
53779.0,STARLINK-4706,PAYLOAD,2024-04-26 05:05:55,15.08823108,0.0001538,53.2168,97.992,116.7535,243.3615,-0.00010323,-1.93e-05,0.0,0 STARLINK-4706,1 53779U 22111G   24117.21244627 -.00001930  00000-0 -10323-3 0  9998,2 53779  53.2168  97.9920 0001538 116.7535 243.3615 15.08823108 89859,6917.932,95.439,540.861,538.733,0.0
53779.0,STARLINK-4706,PAYLOAD,2024-04-26 16:13:36,15.0883704,0.0001232,53.2178,95.9128,99.9877,260.1254,4.6475e-05,4.52e-06,0.0,0 STARLINK-4706,1 53779U 22111G   24117.67611552  .00000452  00000-0  46475-4 0  9997,2 53779  53.2178  95.9128 0001232  99.9877 260.1254 15.08837040 89924,6917.889,95.438,540.607,538.902,0.0
53779.0,STARLINK-4706,PAYLOAD,2024-04-27 04:56:39,15.08859592,0.00014,53.2178,93.5334,96.5077,263.6075,0.00021278,3.102e-05,0.0,0 STARLINK-4706,1 53779U 22111G   24118.20601685  .00003102  00000-0  21278-3 0  9991,2 53779  53.2178  93.5334 0001400  96.5077 263.6075 15.08859592 90005,6917.821,95.436,540.654,538.717,0.0
53779.0,STARLINK-4706,PAYLOAD,2024-04-27 08:07:25,15.08863408,0.000143,53.2175,92.938,98.0625,262.053,0.00024316,3.586e-05,0.0,0 STARLINK-4706,1 53779U 22111G   24118.33849270  .00003586  00000-0  24316-3 0  9991,2 53779  53.2175  92.9380 0001430  98.0625 262.0530 15.08863408 90836,6917.809,95.436,540.663,538.685,0.0
53779.0,STARLINK-4706,PAYLOAD,2024-04-28 04:47:29,15.08823348,0.0001264,53.2181,89.0763,81.0926,279.021,0.00018901,2.72e-05,0.0,0 STARLINK-4706,1 53779U 22111G   24119.19964162  .00002720  00000-0  18901-3 0  9996,2 53779  53.2181  89.0763 0001264  81.0926 279.0210 15.08823348 90153,6917.931,95.439,540.671,538.922,0.0
53779.0,STARLINK-4706,PAYLOAD,2024-04-28 22:16:43,15.0884136,0.0001273,53.2178,85.8049,76.7426,283.3708,-7.9758e-05,-1.557e-05,0.0,0 STARLINK-4706,1 53779U 22111G   24119.92827704 -.00001557  00000-0 -79758-4 0  9994,2 53779  53.2178  85.8049 0001273  76.7426 283.3708 15.08841360 91072,6917.876,95.437,540.622,538.861,0.0
53779.0,STARLINK-4706,PAYLOAD,2024-04-29 04:38:15,15.08850977,0.0001297,53.2174,84.6141,79.672,280.4418,-0.0001256,-2.287e-05,0.0,0 STARLINK-4706,1 53779U 22111G   24120.19323150 -.00002287  00000-0 -12560-3 0  9999,2 53779  53.2174  84.6141 0001297  79.6720 280.4418 15.08850977 90308,6917.847,95.437,540.609,538.815,0.0
53779.0,STARLINK-4706,PAYLOAD,2024-04-29 14:10:33,15.08855482,0.0001395,53.2191,82.8308,82.464,277.6511,-9.9916e-05,-1.878e-05,0.0,0 STARLINK-4706,1 53779U 22111G   24120.59066503 -.00001878  00000-0 -99916-4 0  9995,2 53779  53.2191  82.8308 0001395  82.4640 277.6511 15.08855482 91178,6917.833,95.437,540.663,538.733,0.0
53779.0,STARLINK-4706,PAYLOAD,2024-04-29 22:07:29,15.08830362,0.0001537,53.2197,81.3465,90.88,269.2368,0.00016149,2.282e-05,0.0,0 STARLINK-4706,1 53779U 22111G   24120.92187226  .00002282  00000-0  16149-3 0  9992,2 53779  53.2197  81.3465 0001537  90.8800 269.2368 15.08830362 91224,6917.91,95.438,540.838,538.712,0.0
53779.0,STARLINK-4706,PAYLOAD,2024-04-30 04:29:02,15.0883404,0.0001432,53.2192,80.157,89.4218,270.6939,0.00014176,1.969e-05,0.0,0 STARLINK-4706,1 53779U 22111G   24121.18683211  .00001969  00000-0  14176-3 0  9995,2 53779  53.2192  80.1570 0001432  89.4218 270.6939 15.08834040 90455,6917.899,95.438,540.754,538.773,0.0
53779.0,STARLINK-4706,PAYLOAD,2024-04-30 14:01:20,15.08840209,0.0001501,53.2196,78.3725,88.7363,271.3801,0.00012022,1.626e-05,0.0,0 STARLINK-4706,1 53779U 22111G   24121.58426979  .00001626  00000-0  12022-3 0  9993,2 53779  53.2196  78.3725 0001501  88.7363 271.3801 15.08840209 91327,6917.88,95.438,540.783,538.706,0.0
53779.0,STARLINK-4706,PAYLOAD,2024-05-01 04:19:49,15.08836881,0.0001351,53.2177,75.6932,85.202,274.9127,4.5852e-05,4.42e-06,0.0,0 STARLINK-4706,1 53779U 22111G   24122.18043557  .00000442  00000-0  45852-4 0  9990,2 53779  53.2177  75.6932 0001351  85.2020 274.9127 15.08836881 91412,6917.89,95.438,540.69,538.82,0.0
53779.0,STARLINK-4706,PAYLOAD,2024-05-01 20:13:40,15.0883811,0.0001284,53.2169,72.7195,93.5686,266.5453,6.9213e-05,8.14e-06,0.0,0 STARLINK-4706,1 53779U 22111G   24122.84283296  .00000814  00000-0  69213-4 0  9999,2 53779  53.2169  72.7195 0001284  93.5686 266.5453 15.08838110 90704,6917.886,95.438,540.639,538.863,0.0
53779.0,STARLINK-4706,PAYLOAD,2024-05-02 04:10:36,15.08841839,0.0001232,53.2172,71.232,93.2077,266.9056,2.4778e-05,1.07e-06,0.0,0 STARLINK-4706,1 53779U 22111G   24123.17403237  .00000107  00000-0  24778-4 0  9997,2 53779  53.2172  71.2320 0001232  93.2077 266.9056 15.08841839 91566,6917.875,95.437,540.592,538.887,0.0
53779.0,STARLINK-4706,PAYLOAD,2024-05-03 02:26:00,15.08839524,0.0001251,53.2178,67.0681,95.4249,264.6886,0.00011785,1.588e-05,0.0,0 STARLINK-4706,1 53779U 22111G   24124.10138917  .00001588  00000-0  11785-3 0  9998,2 53779  53.2178  67.0681 0001251  95.4249 264.6886 15.08839524 90890,6917.882,95.438,540.612,538.881,0.0
53779.0,STARLINK-4706,PAYLOAD,2024-05-03 13:33:40,15.0885529,0.0001166,53.2167,64.9889,81.8362,278.2762,0.00013265,1.825e-05,0.0,0 STARLINK-4706,1 53779U 22111G   24124.56505390  .00001825  00000-0  13265-3 0  9990,2 53779  53.2167  64.9889 0001166  81.8362 278.2762 15.08855290 91774,6917.834,95.437,540.505,538.892,0.0
53779.0,STARLINK-4706,PAYLOAD,2024-05-04 02:16:49,15.08815193,0.0001329,53.2185,62.6083,89.0003,271.1142,-0.00020231,-3.504e-05,0.0,0 STARLINK-4706,1 53779U 22111G   24125.09501435 -.00003504  00000-0 -20231-3 0  9994,2 53779  53.2185  62.6083 0001329  89.0003 271.1142 15.08815193 91040,6917.956,95.439,540.741,538.902,0.0
53779.0,STARLINK-4706,PAYLOAD,2024-05-04 13:24:31,15.0882276,0.0001328,53.2195,60.5285,94.0074,266.107,-0.00010364,-1.936e-05,0.0,0 STARLINK-4706,1 53779U 22111G   24125.55869226 -.00001936  00000-0 -10364-3 0  9993,2 53779  53.2195  60.5285 0001328  94.0074 266.1070 15.08822760 91115,6917.933,95.439,540.717,538.879,0.0
53779.0,STARLINK-4706,PAYLOAD,2024-05-05 02:07:35,15.08839461,0.000109,53.2193,58.1492,71.3708,288.7403,-5.8014e-05,-1.211e-05,0.0,0 STARLINK-4706,1 53779U 22111G   24126.08860418 -.00001211  00000-0 -58014-4 0  9997,2 53779  53.2193  58.1492 0001090  71.3708 288.7403 15.08839461 91198,6917.882,95.438,540.501,538.993,0.0
53779.0,STARLINK-4706,PAYLOAD,2024-05-05 05:18:21,15.08841769,0.0001382,53.2187,57.5544,81.9448,278.1701,-5.1037e-05,-1.1e-05,0.0,0 STARLINK-4706,1 53779U 22111G   24126.22108381 -.00001100  00000-0 -51037-4 0  9992,2 53779  53.2187  57.5544 0001382  81.9448 278.1701 15.08841769 92025,6917.875,95.437,540.696,538.784,0.0
53779.0,STARLINK-4706,PAYLOAD,2024-05-05 22:47:35,15.08835435,0.0001449,53.2192,54.2841,76.3703,283.7451,0.00039207,5.957e-05,0.0,0 STARLINK-4706,1 53779U 22111G   24126.94971735  .00005957  00000-0  39207-3 0  9998,2 53779  53.2192  54.2841 0001449  76.3703 283.7451 15.08835435 92130,6917.894,95.438,540.762,538.757,0.0
53779.0,STARLINK-4706,PAYLOAD,2024-05-06 05:09:08,15.08860223,0.0001437,53.2183,53.0939,75.0702,285.0449,0.00067099,0.00010413,0.0,0 STARLINK-4706,1 53779U 22111G   24127.21467781  .00010413  00000-0  67099-3 0  9993,2 53779  53.2183  53.0939 0001437  75.0702 285.0449 15.08860223 91366,6917.819,95.436,540.678,538.689,0.0
